GLOBALSTAR M023         
1 25621U 99004A   25342.76043777 -.00000076  00000+0  15737-3 0  9994
2 25621  52.0103 241.8586 0010104 148.6386 247.4332 12.62509861237787
GLOBALSTAR M040         
1 25622U 99004B   25342.51623663 -.00000035  00000+0  38194-3 0  9993
2 25622  51.9917 247.0135 0001758  57.7273 113.2992 12.62024941237263
GLOBALSTAR M036         
1 25623U 99004C   25342.85196823 -.00000083  00000+0 -33364-6 0  9995
2 25623  51.9942 139.9340 0010878  30.2304 118.4911 11.86618281199719
GLOBALSTAR M038         
1 25624U 99004D   25342.63826730 -.00000050  00000+0  37273-3 0  9992
2 25624  51.9987 289.1683 0002406  54.1212 117.1993 12.32537076223884
GLOBALSTAR M022         
1 25649U 99012A   25342.53920456 -.00000072  00000+0  18309-3 0  9990
2 25649  52.0008 176.9302 0003276 136.6989 249.9269 12.02507968197357
GLOBALSTAR M041         
1 25650U 99012B   25342.53818461 -.00000068  00000+0  22523-3 0  9992
2 25650  52.0038  63.6978 0000578 307.1236  52.9548 11.96681296199156
GLOBALSTAR M046         
1 25651U 99012C   25342.63570793 -.00000158  00000+0 -76693-3 0  9995
2 25651  52.0041 120.4325 0001515 212.7513 161.7388 12.09417767204771
GLOBALSTAR M037         
1 25652U 99012D   25342.85546347 -.00000042  00000+0  34502-3 0  9992
2 25652  52.0025  12.1218 0001974 205.5493 324.8553 12.62457711233330
